start=new Date('2023-04-10T00:00:00.000Z').valueOf();
sats=[{"MEAN_MOTION_DDOT":"0.0000000000000","INCLINATION":"53.2183","ECCENTRICITY":"0.00018020","NORAD_CAT_ID":"49435","REV_AT_EPOCH":"7814","GP_ID":"229808845","BSTAR":"0.00011105000000","DECAY_DATE":null,"OBJECT_NAME":"STARLINK-3117","LAUNCH_DATE":"2021-11-13","SEMIMAJOR_AXIS":"6917.879","EPOCH":"2023-04-09T18:17:21.877728","RA_OF_ASC_NODE":"309.7689","FILE":"3884641","MEAN_MOTION_DOT":"0.00001480","ELEMENT_SET_NO":"999","TIME_SYSTEM":"UTC","MEAN_ELEMENT_THEORY":"SGP4","PERIOD":"95.438","EPHEMERIS_TYPE":"0","CENTER_NAME":"EARTH","COUNTRY_CODE":"US","CLASSIFICATION_TYPE":"U","TLE_LINE2":"2 49435  53.2183 309.7689 0001802 101.0226 259.0968 15.08840390 78141","TLE_LINE1":"1 49435U 21104AD  23099.76205877  .00001480  00000-0  11105-3 0  9992","MEAN_MOTION":"15.08840390","SITE":"AFETR","ARG_OF_PERICENTER":"101.0226","OBJECT_TYPE":"PAYLOAD","PERIAPSIS":"538.498","REF_FRAME":"TEME","OBJECT_ID":"2021-104AD","APOAPSIS":"540.991","MEAN_ANOMALY":"259.0968","RCS_SIZE":"LARGE"},{"NORAD_CAT_ID":"49436","GP_ID":"229785031","REV_AT_EPOCH":"7922","INCLINATION":"53.2163","MEAN_MOTION_DDOT":"0.0000000000000","ECCENTRICITY":"0.00012180","BSTAR":"0.00004834800000","EPOCH":"2023-04-09T19:51:22.097376","SEMIMAJOR_AXIS":"6917.878","RA_OF_ASC_NODE":"309.4714","DECAY_DATE":null,"LAUNCH_DATE":"2021-11-13","OBJECT_NAME":"STARLINK-3049","MEAN_ELEMENT_THEORY":"SGP4","PERIOD":"95.438","FILE":"3884580","MEAN_MOTION_DOT":"0.00000482","TIME_SYSTEM":"UTC","ELEMENT_SET_NO":"999","CENTER_NAME":"EARTH","EPHEMERIS_TYPE":"0","TLE_LINE1":"1 49436U 21104AE  23099.82733909  .00000482  00000-0  48348-4 0  9993","MEAN_MOTION":"15.08840687","COUNTRY_CODE":"US","CLASSIFICATION_TYPE":"U","TLE_LINE2":"2 49436  53.2163 309.4714 0001218  82.3132 277.7998 15.08840687 79223","ARG_OF_PERICENTER":"82.3132","PERIAPSIS":"538.901","OBJECT_TYPE":"PAYLOAD","SITE":"AFETR","RCS_SIZE":"LARGE","MEAN_ANOMALY":"277.7998","OBJECT_ID":"2021-104AE","APOAPSIS":"540.586","REF_FRAME":"TEME"},{"INCLINATION":"53.2171","MEAN_MOTION_DDOT":"0.0000000000000","ECCENTRICITY":"0.00013140","NORAD_CAT_ID":"49437","GP_ID":"229785329","REV_AT_EPOCH":"7924","BSTAR":"-0.00003754900000","DECAY_DATE":null,"OBJECT_NAME":"STARLINK-3130","LAUNCH_DATE":"2021-11-13","EPOCH":"2023-04-09T22:51:32.337504","SEMIMAJOR_AXIS":"6917.886","RA_OF_ASC_NODE":"308.9110","MEAN_MOTION_DOT":"-0.00000885","FILE":"3884592","TIME_SYSTEM":"UTC","ELEMENT_SET_NO":"999","MEAN_ELEMENT_THEORY":"SGP4","PERIOD":"95.438","EPHEMERIS_TYPE":"0","CENTER_NAME":"EARTH","COUNTRY_CODE":"US","CLASSIFICATION_TYPE":"U","TLE_LINE2":"2 49437  53.2171 308.9110 0001314 103.0317 257.0822 15.08838163 79245","TLE_LINE1":"1 49437U 21104AF  23099.95245761 -.00000885  00000-0 -37549-4 0  9992","MEAN_MOTION":"15.08838163","SITE":"AFETR","ARG_OF_PERICENTER":"103.0317","PERIAPSIS":"538.842","OBJECT_TYPE":"PAYLOAD","APOAPSIS":"540.660","OBJECT_ID":"2021-104AF","REF_FRAME":"TEME","RCS_SIZE":"LARGE","MEAN_ANOMALY":"257.0822"},{"PERIOD":"95.437","MEAN_ELEMENT_THEORY":"SGP4","ELEMENT_SET_NO":"999","TIME_SYSTEM":"UTC","MEAN_MOTION_DOT":"0.00001702","FILE":"3884641","RA_OF_ASC_NODE":"309.1839","SEMIMAJOR_AXIS":"6917.872","EPOCH":"2023-04-09T21:01:37.212096","OBJECT_NAME":"STARLINK-3044","LAUNCH_DATE":"2021-11-13","DECAY_DATE":null,"BSTAR":"0.00012497000000","GP_ID":"229808096","REV_AT_EPOCH":"7816","NORAD_CAT_ID":"49438","ECCENTRICITY":"0.00009060","INCLINATION":"53.2157","MEAN_MOTION_DDOT":"0.0000000000000","MEAN_ANOMALY":"275.5864","RCS_SIZE":"LARGE","REF_FRAME":"TEME","OBJECT_ID":"2021-104AG","APOAPSIS":"540.364","PERIAPSIS":"539.110","OBJECT_TYPE":"PAYLOAD","ARG_OF_PERICENTER":"84.5231","SITE":"AFETR","MEAN_MOTION":"15.08842774","TLE_LINE1":"1 49438U 21104AG  23099.87612514  .00001702  00000-0  12497-3 0  9999","TLE_LINE2":"2 49438  53.2157 309.1839 0000906  84.5231 275.5864 15.08842774 78169","COUNTRY_CODE":"US","CLASSIFICATION_TYPE":"U","CENTER_NAME":"EARTH","EPHEMERIS_TYPE":"0"},{"SEMIMAJOR_AXIS":"6917.862","EPOCH":"2023-04-09T20:45:44.074080","RA_OF_ASC_NODE":"309.3109","DECAY_DATE":null,"LAUNCH_DATE":"2021-11-13","OBJECT_NAME":"STARLINK-3108","MEAN_ELEMENT_THEORY":"SGP4","PERIOD":"95.437","FILE":"3884641","MEAN_MOTION_DOT":"0.00003985","ELEMENT_SET_NO":"999","TIME_SYSTEM":"UTC","NORAD_CAT_ID":"49439","GP_ID":"229808345","REV_AT_EPOCH":"7816","MEAN_MOTION_DDOT":"0.0000000000000","INCLINATION":"53.2162","ECCENTRICITY":"0.00011110","BSTAR":"0.00026827000000","ARG_OF_PERICENTER":"83.3951","PERIAPSIS":"538.959","OBJECT_TYPE":"PAYLOAD","SITE":"AFETR","MEAN_ANOMALY":"276.7167","RCS_SIZE":"LARGE","REF_FRAME":"TEME","OBJECT_ID":"2021-104AH","APOAPSIS":"540.496","CENTER_NAME":"EARTH","EPHEMERIS_TYPE":"0","TLE_LINE1":"1 49439U 21104AH  23099.86509345  .00003985  00000-0  26827-3 0  9993","MEAN_MOTION":"15.08845972","CLASSIFICATION_TYPE":"U","COUNTRY_CODE":"US","TLE_LINE2":"2 49439  53.2162 309.3109 0001111  83.3951 276.7167 15.08845972 78165"},{"MEAN_MOTION_DDOT":"0.0000000000000","INCLINATION":"53.2156","ECCENTRICITY":"0.00011540","NORAD_CAT_ID":"49440","REV_AT_EPOCH":"7816","GP_ID":"229809089","BSTAR":"-0.00005527200000","DECAY_DATE":null,"LAUNCH_DATE":"2021-11-13","OBJECT_NAME":"STARLINK-3105","EPOCH":"2023-04-09T21:05:33.221472","SEMIMAJOR_AXIS":"6917.878","RA_OF_ASC_NODE":"309.2384","FILE":"3884641","MEAN_MOTION_DOT":"-0.00001167","TIME_SYSTEM":"UTC","ELEMENT_SET_NO":"999","MEAN_ELEMENT_THEORY":"SGP4","PERIOD":"95.438","EPHEMERIS_TYPE":"0","CENTER_NAME":"EARTH","COUNTRY_CODE":"US","CLASSIFICATION_TYPE":"U","TLE_LINE2":"2 49440  53.2156 309.2384 0001154  88.3042 271.8082 15.08840654 78161","TLE_LINE1":"1 49440U 21104AJ  23099.87885673 -.00001167  00000-0 -55272-4 0  9996","MEAN_MOTION":"15.08840654","SITE":"AFETR","ARG_OF_PERICENTER":"88.3042","PERIAPSIS":"538.945","OBJECT_TYPE":"PAYLOAD","OBJECT_ID":"2021-104AJ","APOAPSIS":"540.542","REF_FRAME":"TEME","RCS_SIZE":"LARGE","MEAN_ANOMALY":"271.8082"},{"OBJECT_ID":"2021-104AK","APOAPSIS":"540.645","REF_FRAME":"TEME","RCS_SIZE":"LARGE","MEAN_ANOMALY":"273.0103","SITE":"AFETR","ARG_OF_PERICENTER":"87.1039","OBJECT_TYPE":"PAYLOAD","PERIAPSIS":"538.837","CLASSIFICATION_TYPE":"U","COUNTRY_CODE":"US","TLE_LINE2":"2 49441  53.2162 309.3260 0001307  87.1039 273.0103 15.08841499 78162","TLE_LINE1":"1 49441U 21104AK  23099.86045766  .00001076  00000-0  85655-4 0  9992","MEAN_MOTION":"15.08841499","EPHEMERIS_TYPE":"0","CENTER_NAME":"EARTH","FILE":"3884641","MEAN_MOTION_DOT":"0.00001076","TIME_SYSTEM":"UTC","ELEMENT_SET_NO":"999","MEAN_ELEMENT_THEORY":"SGP4","PERIOD":"95.437","DECAY_DATE":null,"LAUNCH_DATE":"2021-11-13","OBJECT_NAME":"STARLINK-3128","EPOCH":"2023-04-09T20:39:03.541824","SEMIMAJOR_AXIS":"6917.876","RA_OF_ASC_NODE":"309.3260","BSTAR":"0.00008565500000","MEAN_MOTION_DDOT":"0.0000000000000","INCLINATION":"53.2162","ECCENTRICITY":"0.00013070","NORAD_CAT_ID":"49441","REV_AT_EPOCH":"7816","GP_ID":"229807351"},{"ARG_OF_PERICENTER":"96.4616","PERIAPSIS":"539.093","OBJECT_TYPE":"PAYLOAD","SITE":"AFETR","MEAN_ANOMALY":"263.6483","RCS_SIZE":"LARGE","REF_FRAME":"TEME","APOAPSIS":"540.395","OBJECT_ID":"2021-104AL","CENTER_NAME":"EARTH","EPHEMERIS_TYPE":"0","TLE_LINE1":"1 49442U 21104AL  23099.87517565  .00000693  00000-0  61614-4 0  9998","MEAN_MOTION":"15.08840422","COUNTRY_CODE":"US","CLASSIFICATION_TYPE":"U","TLE_LINE2":"2 49442  53.2150 309.2548 0000941  96.4616 263.6483 15.08840422 78166","SEMIMAJOR_AXIS":"6917.879","EPOCH":"2023-04-09T21:00:15.176160","RA_OF_ASC_NODE":"309.2548","DECAY_DATE":null,"LAUNCH_DATE":"2021-11-13","OBJECT_NAME":"STARLINK-3098","MEAN_ELEMENT_THEORY":"SGP4","PERIOD":"95.438","MEAN_MOTION_DOT":"0.00000693","FILE":"3884641","ELEMENT_SET_NO":"999","TIME_SYSTEM":"UTC","NORAD_CAT_ID":"49442","REV_AT_EPOCH":"7816","GP_ID":"229807596","INCLINATION":"53.2150","MEAN_MOTION_DDOT":"0.0000000000000","ECCENTRICITY":"0.00009410","BSTAR":"0.00006161400000"},{"ECCENTRICITY":"0.00011880","MEAN_MOTION_DDOT":"0.0000000000000","INCLINATION":"53.2162","GP_ID":"229808846","REV_AT_EPOCH":"7814","NORAD_CAT_ID":"49443","BSTAR":"0.00017946000000","LAUNCH_DATE":"2021-11-13","OBJECT_NAME":"STARLINK-3136","DECAY_DATE":null,"RA_OF_ASC_NODE":"309.9352","SEMIMAJOR_AXIS":"6917.871","EPOCH":"2023-04-09T17:22:59.323008","ELEMENT_SET_NO":"999","TIME_SYSTEM":"UTC","FILE":"3884641","MEAN_MOTION_DOT":"0.00002570","PERIOD":"95.437","MEAN_ELEMENT_THEORY":"SGP4","EPHEMERIS_TYPE":"0","CENTER_NAME":"EARTH","TLE_LINE2":"2 49443  53.2162 309.9352 0001188  91.9803 268.1325 15.08843180 78149","COUNTRY_CODE":"US","CLASSIFICATION_TYPE":"U","MEAN_MOTION":"15.08843180","TLE_LINE1":"1 49443U 21104AM  23099.72429772  .00002570  00000-0  17946-3 0  9999","SITE":"AFETR","PERIAPSIS":"538.914","OBJECT_TYPE":"PAYLOAD","ARG_OF_PERICENTER":"91.9803","REF_FRAME":"TEME","APOAPSIS":"540.558","OBJECT_ID":"2021-104AM","MEAN_ANOMALY":"268.1325","RCS_SIZE":"LARGE"},{"ARG_OF_PERICENTER":"85.3772","PERIAPSIS":"538.921","OBJECT_TYPE":"PAYLOAD","SITE":"AFETR","MEAN_ANOMALY":"274.7354","RCS_SIZE":"LARGE","REF_FRAME":"TEME","OBJECT_ID":"2021-104AN","APOAPSIS":"540.545","CENTER_NAME":"EARTH","EPHEMERIS_TYPE":"0","TLE_LINE1":"1 49444U 21104AN  23099.87149540  .00002144  00000-0  15273-3 0  9996","MEAN_MOTION":"15.08844124","CLASSIFICATION_TYPE":"U","COUNTRY_CODE":"US","TLE_LINE2":"2 49444  53.2155 309.2745 0001174  85.3772 274.7354 15.08844124 78164","SEMIMAJOR_AXIS":"6917.868","EPOCH":"2023-04-09T20:54:57.202560","RA_OF_ASC_NODE":"309.2745","DECAY_DATE":null,"LAUNCH_DATE":"2021-11-13","OBJECT_NAME":"STARLINK-3126","MEAN_ELEMENT_THEORY":"SGP4","PERIOD":"95.437","FILE":"3884641","MEAN_MOTION_DOT":"0.00002144","ELEMENT_SET_NO":"999","TIME_SYSTEM":"UTC","NORAD_CAT_ID":"49444","REV_AT_EPOCH":"7816","GP_ID":"229808589","MEAN_MOTION_DDOT":"0.0000000000000","INCLINATION":"53.2155","ECCENTRICITY":"0.00011740","BSTAR":"0.00015273000000"}];
